CCSDS_OMM_VERS,COMMENT,CREATION_DATE,ORIGINATOR,OBJECT_NAME,OBJECT_ID,CENTER_NAME,REF_FRAME,TIME_SYSTEM,MEAN_ELEMENT_THEORY,EPOCH,MEAN_MOTION,ECCENTRICITY,INCLINATION,RA_OF_ASC_NODE,ARG_OF_PERICENTER,MEAN_ANOMALY,EPHEMERIS_TYPE,CLASSIFICATION_TYPE,NORAD_CAT_ID,ELEMENT_SET_NO,REV_AT_EPOCH,BSTAR,MEAN_MOTION_DOT,MEAN_MOTION_DDOT,SEMIMAJOR_AXIS,PERIOD,APOAPSIS,PERIAPSIS,OBJECT_TYPE,RCS_SIZE,COUNTRY_CODE,LAUNCH_DATE,SITE,DECAY_DATE,FILE,GP_ID,TLE_LINE0,TLE_LINE1,TLE_LINE2
"2.0","GENERATED VIA SPACE-TRACK.ORG API","2008-11-30T16:18:41","18 SPCS","IRIDIUM 33","1997-051C","EARTH","TEME","UTC","SGP4","2008-11-30T21:35:24.569087","14.34217742","0.00022110","86.3984","151.2904","80.0587","280.0857","0","U","24946","999","58717","-0.00002745200000","-0.00000057","0.0000000000000","7155.808","100.403","779.255","776.091","PAYLOAD","LARGE","US","1997-09-14","TTMTR","","639755","68851768","0 IRIDIUM 33","1 24946U 97051C   08335.89958992 -.00000057  00000-0 -27452-4 0  9993","2 24946 086.3984 151.2904 0002211 080.0587 280.0857 14.34217742587174"
"2.0","GENERATED VIA SPACE-TRACK.ORG API","2009-01-06T15:18:05","18 SPCS","COSMOS 2251","1993-036A","EARTH","TEME","UTC","SGP4","2008-12-01T14:17:42.653184","14.31131940","0.00174130","74.0335","146.7721","241.2261","118.7131","0","U","22675","999","80741","0.00001332500000","0.00000009","0.0000000000000","7166.091","100.619","800.434","775.477","PAYLOAD","LARGE","CIS","1993-06-16","PKMTR","","655387","69131451","0 COSMOS 2251","1 22675U 93036A   08336.59563256 +.00000009 +00000-0 +13325-4 0  9991","2 22675 074.0335 146.7721 0017413 241.2261 118.7131 14.31131940807417"
"2.0","GENERATED VIA SPACE-TRACK.ORG API","2008-12-01T08:08:25","18 SPCS","IRIDIUM 33","1997-051C","EARTH","TEME","UTC","SGP4","2008-12-01T14:20:04.555679","14.34217615","0.00021910","86.3982","150.9989","80.3691","279.7751","0","U","24946","999","58727","-0.00002608200000","-0.00000053","0.0000000000000","7155.809","100.403","779.242","776.106","PAYLOAD","LARGE","US","1997-09-14","TTMTR","","640061","68858214","0 IRIDIUM 33","1 24946U 97051C   08336.59727495 -.00000053  00000-0 -26082-4 0  9997","2 24946 086.3982 150.9989 0002191 080.3691 279.7751 14.34217615587275"
"2.0","GENERATED VIA SPACE-TRACK.ORG API","2008-12-01T22:44:10","18 SPCS","COSMOS 2251","1993-036A","EARTH","TEME","UTC","SGP4","2008-12-01T22:41:00.673151","14.31131941","0.00174110","74.0335","146.1355","240.6639","119.2768","0","U","22675","999","80746","0.00001343400000","0.00000009","0.0000000000000","7166.091","100.619","800.433","775.479","PAYLOAD","LARGE","CIS","1993-06-16","PKMTR","","640315","68860828","0 COSMOS 2251","1 22675U 93036A   08336.94514668  .00000009  00000-0  13434-4 0  9994","2 22675 074.0335 146.1355 0017411 240.6639 119.2768 14.31131941807462"
"2.0","GENERATED VIA SPACE-TRACK.ORG API","2009-01-06T15:18:05","18 SPCS","IRIDIUM 33","1997-051C","EARTH","TEME","UTC","SGP4","2008-12-01T22:42:24.551136","14.34217832","0.00022170","86.3982","150.8532","81.1154","279.0302","0","U","24946","999","58732","-0.00000296270000","0.00000011","0.0000000000000","7155.808","100.403","779.259","776.087","PAYLOAD","LARGE","US","1997-09-14","TTMTR","","655387","69131812","0 IRIDIUM 33","1 24946U 97051C   08336.94611749 +.00000011 +00000-0 -29627-5 0  9992","2 24946 086.3982 150.8532 0002217 081.1154 279.0302 14.34217832587322"
"2.0","GENERATED VIA SPACE-TRACK.ORG API","2008-12-02T08:12:32","18 SPCS","IRIDIUM 33","1997-051C","EARTH","TEME","UTC","SGP4","2008-12-02T13:46:36.547104","14.34217396","0.00022210","86.3982","150.5908","81.5052","278.6391","0","U","24946","999","58741","-0.00003256100000","-0.00000071","0.0000000000000","7155.809","100.403","779.264","776.085","PAYLOAD","LARGE","US","1997-09-14","TTMTR","","640537","68865040","0 IRIDIUM 33","1 24946U 97051C   08337.57403411 -.00000071  00000-0 -32561-4 0  9994","2 24946 086.3982 150.5908 0002221 081.5052 278.6391 14.34217396587410"
"2.0","GENERATED VIA SPACE-TRACK.ORG API","2009-01-06T15:18:05","18 SPCS","IRIDIUM 33","1997-051C","EARTH","TEME","UTC","SGP4","2008-12-02T22:08:56.566751","14.34217504","0.00022410","86.3983","150.4453","82.0725","278.0740","0","U","24946","999","58746","-0.00001605500000","-0.00000025","0.0000000000000","7155.809","100.403","779.278","776.070","PAYLOAD","LARGE","US","1997-09-14","TTMTR","","655390","69146418","0 IRIDIUM 33","1 24946U 97051C   08337.92287693 -.00000025 +00000-0 -16055-4 0  9994","2 24946 086.3983 150.4453 0002241 082.0725 278.0740 14.34217504587468"
"2.0","GENERATED VIA SPACE-TRACK.ORG API","2009-01-06T15:18:05","18 SPCS","COSMOS 2251","1993-036A","EARTH","TEME","UTC","SGP4","2008-12-02T22:10:15.107807","14.31131917","0.00174050","74.0336","144.3533","238.6822","121.2623","0","U","22675","999","80760","0.00001118000000","0.00000003","0.0000000000000","7166.091","100.619","800.428","775.483","PAYLOAD","LARGE","CIS","1993-06-16","PKMTR","","655390","69146097","0 COSMOS 2251","1 22675U 93036A   08337.92378597 +.00000003 +00000-0 +11180-4 0  9992","2 22675 074.0336 144.3533 0017405 238.6822 121.2623 14.31131917807607"
"2.0","GENERATED VIA SPACE-TRACK.ORG API","2008-12-03T06:47:44","18 SPCS","COSMOS 2251","1993-036A","EARTH","TEME","UTC","SGP4","2008-12-03T09:54:52.319520","14.31132028","0.00174040","74.0335","143.4622","237.7233","122.2240","0","U","22675","999","80767","0.00001370400000","0.00000010","0.0000000000000","7166.090","100.619","800.427","775.484","PAYLOAD","LARGE","CIS","1993-06-16","PKMTR","","640833","68869813","0 COSMOS 2251","1 22675U 93036A   08338.41310555  .00000010  00000-0  13704-4 0  9999","2 22675 074.0335 143.4622 0017404 237.7233 122.2240 14.31132028807677"
"2.0","GENERATED VIA SPACE-TRACK.ORG API","2008-12-03T08:14:17","18 SPCS","IRIDIUM 33","1997-051C","EARTH","TEME","UTC","SGP4","2008-12-03T13:13:08.547168","14.34217334","0.00022180","86.3983","150.1832","81.1886","278.9560","0","U","24946","999","58755","-0.00002172200000","-0.00000041","0.0000000000000","7155.810","100.403","779.262","776.087","PAYLOAD","LARGE","US","1997-09-14","TTMTR","","640926","68871708","0 IRIDIUM 33","1 24946U 97051C   08338.55079337 -.00000041  00000-0 -21722-4 0  9993","2 24946 086.3983 150.1832 0002218 081.1886 278.9560 14.34217334587558"
"2.0","GENERATED VIA SPACE-TRACK.ORG API","2009-01-06T15:18:05","18 SPCS","COSMOS 2251","1993-036A","EARTH","TEME","UTC","SGP4","2008-12-03T19:58:49.910304","14.31132051","0.00173910","74.0337","142.6984","236.9372","123.0104","0","U","22675","999","80773","0.00001367600000","0.00000010","0.0000000000000","7166.090","100.619","800.418","775.493","PAYLOAD","LARGE","CIS","1993-06-16","PKMTR","","655388","69138946","0 COSMOS 2251","1 22675U 93036A   08338.83252211 +.00000010 +00000-0 +13676-4 0  9997","2 22675 074.0337 142.6984 0017391 236.9372 123.0104 14.31132051807732"
"2.0","GENERATED VIA SPACE-TRACK.ORG API","2009-01-06T15:18:05","18 SPCS","IRIDIUM 33","1997-051C","EARTH","TEME","UTC","SGP4","2008-12-03T23:15:56.541887","14.34217363","0.00022340","86.3984","150.0085","82.2173","277.9276","0","U","24946","999","58761","-0.00001248500000","-0.00000015","0.0000000000000","7155.810","100.403","779.273","776.076","PAYLOAD","LARGE","US","1997-09-14","TTMTR","","655388","69139325","0 IRIDIUM 33","1 24946U 97051C   08338.96940442 -.00000015 +00000-0 -12485-4 0  9999","2 24946 086.3984 150.0085 0002234 082.2173 277.9276 14.34217363587619"
"2.0","GENERATED VIA SPACE-TRACK.ORG API","2008-12-04T08:43:34","18 SPCS","IRIDIUM 33","1997-051C","EARTH","TEME","UTC","SGP4","2008-12-04T14:20:08.575872","14.34216991","0.00022130","86.3984","149.7463","80.1265","280.0180","0","U","24946","999","58770","-0.00003343000000","-0.00000074","0.0000000000000","7155.811","100.403","779.259","776.092","PAYLOAD","LARGE","US","1997-09-14","TTMTR","","641373","68877900","0 IRIDIUM 33","1 24946U 97051C   08339.59732148 -.00000074  00000-0 -33430-4 0  9999","2 24946 086.3984 149.7463 0002213 080.1265 280.0180 14.34216991587705"
"2.0","GENERATED VIA SPACE-TRACK.ORG API","2008-12-04T13:43:14","18 SPCS","COSMOS 2251","1993-036A","EARTH","TEME","UTC","SGP4","2008-12-04T19:28:04.313856","14.31132086","0.00173890","74.0339","140.9162","234.9138","125.0375","0","U","22675","999","80787","0.00001102500000","0.00000003","0.0000000000000","7166.090","100.619","800.416","775.494","PAYLOAD","LARGE","CIS","1993-06-16","PKMTR","","641485","68878903","0 COSMOS 2251","1 22675U 93036A   08339.81116104  .00000003  00000-0  11025-4 0  9994","2 22675 074.0339 140.9162 0017389 234.9138 125.0375 14.31132086807873"
"2.0","GENERATED VIA SPACE-TRACK.ORG API","2009-01-06T15:26:25","18 SPCS","IRIDIUM 33","1997-051C","EARTH","TEME","UTC","SGP4","2008-12-04T22:42:28.576512","14.34217056","0.00022310","86.3983","149.6005","81.2282","278.9167","0","U","24946","999","58775","-0.00002189000000","-0.00000042","0.0000000000000","7155.811","100.403","779.272","776.079","PAYLOAD","LARGE","US","1997-09-14","TTMTR","","655402","69174209","0 IRIDIUM 33","1 24946U 97051C   08339.94616408 -.00000042 +00000-0 -21890-4 0  9990","2 24946 086.3983 149.6005 0002231 081.2282 278.9167 14.34217056587755"
"2.0","GENERATED VIA SPACE-TRACK.ORG API","2008-12-05T09:17:18","18 SPCS","IRIDIUM 33","1997-051C","EARTH","TEME","UTC","SGP4","2008-12-05T15:27:08.586432","14.34216896","0.00021950","86.3983","149.3093","81.6145","278.5298","0","U","24946","999","58785","-0.00002358500000","-0.00000046","0.0000000000000","7155.811","100.403","779.247","776.105","PAYLOAD","LARGE","US","1997-09-14","TTMTR","","641835","68885869","0 IRIDIUM 33","1 24946U 97051C   08340.64384938 -.00000046  00000-0 -23585-4 0  9996","2 24946 086.3983 149.3093 0002195 081.6145 278.5298 14.34216896587853"
